0 SL-16 DEB
1 22553U 92093HP  13282.47485267  .00015450  00000-0  27045-2 0  3886
2 22553 071.4228 294.7900 0024296 028.1385 125.1227 14.67684988 88214
0 SL-16 DEB
1 22553U 92093HP  13283.14938387  .00013511  00000-0  23665-2 0  3898
2 22553 071.4228 293.2805 0024315 026.9433 089.1554 14.67694513 88312
0 SL-16 DEB
1 22553U 92093HP  13286.14983178  .00013470  00000-0  23557-2 0  3916
2 22553 071.4223 286.5652 0024488 021.7192 103.0022 14.67761356 88752
0 SL-16 DEB
1 22553U 92093HP  13287.77276955  .00020064  00000-0  34971-2 0  3924
2 22553 071.4216 282.9324 0024635 018.9141 038.6220 14.67801559 88995
0 SL-16 DEB
1 22553U 92093HP  13288.79628567  .00019849  00000-0  34567-2 0  3938
2 22553 071.4215 280.6409 0024696 017.2432 046.9486 14.67840659 89143
0 SL-16 DEB
1 22553U 92093HP  13289.81895727  .00022385  00000-0  38932-2 0  3946
2 22553 071.4215 278.3512 0024653 015.5717 050.9417 14.67869430 89295
0 SL-16 DEB
1 22553U 92093HP  13291.12665491  .00018504  00000-0  32184-2 0  3958
2 22553 071.4216 275.4230 0024766 013.3747 121.2995 14.67915821 89485
0 SL-16 DEB
1 22553U 92093HP  13292.74938083  .00019923  00000-0  34592-2 0  3969
2 22553 071.4219 271.7893 0024816 010.7504 056.5819 14.67971680 89727
0 SL-16 DEB
1 22553U 92093HP  13293.77114637  .00021818  00000-0  37833-2 0  3972
2 22553 071.4221 269.5015 0024855 009.1874 056.1767 14.68005744 89870
0 SL-16 DEB
1 22553U 92093HP  13295.35636595  .00025752  00000-0  44553-2 0  3989
2 22553 071.4224 265.9522 0024779 006.5446 153.8671 14.68063075 90105
